NORAD_CAT_ID,OBJECT_NAME,OBJECT_TYPE,EPOCH,MEAN_MOTION,ECCENTRICITY,INCLINATION,RA_OF_ASC_NODE,ARG_OF_PERICENTER,MEAN_ANOMALY,BSTAR,MEAN_MOTION_DOT,MEAN_MOTION_DDOT,TLE_LINE0,TLE_LINE1,TLE_LINE2,SEMIMAJOR_AXIS,PERIOD,APOGEE,PERIGEE,DECAYED
52872.0,STARLINK-4213,PAYLOAD,2022-08-26 22:00:00,15.73144142,0.0003408,53.215,56.4934,15.8185,266.2683,0.00051744,0.00072469,0.0,0 STARLINK-4213,1 52872U 22062AU  22238.91667824  .00072469  00000-0  51744-3 0  9998,2 52872  53.2150  56.4934 0003408  15.8185 266.2683 15.73144142  1305,6728.054,91.536,352.212,347.62699999999984,0.0
52872.0,STARLINK-4213,PAYLOAD,2022-08-27 14:00:01,15.73229742,0.0003212,53.2153,53.1923,17.6323,82.2592,-5.7689e-05,-8.724e-05,0.0,0 STARLINK-4213,1 52872U 22062AU  22239.58334491 -.00008724  00000-0 -57689-4 0  9993,2 52872  53.2153  53.1923 0003212  17.6323  82.2592 15.73229742  1302,6727.81,91.531,351.836,347.514,0.0
52872.0,STARLINK-4213,PAYLOAD,2022-08-27 22:00:00,15.73200406,0.0003486,53.2154,51.5443,13.3677,175.5085,0.0001295,0.00017595,0.0,0 STARLINK-4213,1 52872U 22062AU  22239.91667824  .00017595  00000-0  12950-3 0  9994,2 52872  53.2154  51.5443 0003486  13.3677 175.5085 15.73200406 11737,6727.894,91.533,352.10400000000016,347.414,0.0
52872.0,STARLINK-4213,PAYLOAD,2022-08-28 14:00:01,15.73293651,0.0003358,53.2161,48.2419,11.0473,355.7256,-0.00077675,-0.00108713,0.0,0 STARLINK-4213,1 52872U 22062AU  22240.58334491 -.00108713  00000-0 -77675-3 0  9990,2 52872  53.2161  48.2419 0003358  11.0473 355.7256 15.73293651  1306,6727.628000000002,91.528,351.75199999999984,347.2340000000001,0.0
52872.0,STARLINK-4213,PAYLOAD,2022-08-28 22:00:00,15.73247962,0.0003297,53.2163,46.591,8.6907,87.0666,-0.00442,-0.00581467,0.0,0 STARLINK-4213,1 52872U 22062AU  22240.91667824 -.00581467  00000-0 -44200-2 0  9994,2 52872  53.2163  46.5910 0003297   8.6907  87.0666 15.73247962  1305,6727.7580000000025,91.53,351.842,347.405,0.0
52872.0,STARLINK-4213,PAYLOAD,2022-08-29 14:00:01,15.72307127,0.0003158,53.2174,43.2833,7.7092,265.0377,-0.0086837,-0.01056089,0.0,0 STARLINK-4213,1 52872U 22062AU  22241.58334491 -.01056089  00000-0 -86837-2 0  9999,2 52872  53.2174  43.2833 0003158   7.7092 265.0377 15.72307127  1302,6730.441999999999,91.585,354.432,350.182,0.0
52872.0,STARLINK-4213,PAYLOAD,2022-08-29 16:00:00,15.7222221,0.0002992,53.2172,42.8728,343.8313,40.7911,-0.0099282,-0.01186457,0.0,0 STARLINK-4213,1 52872U 22062AU  22241.66667824 -.01186457  00000-0 -99282-2 0  9998,2 52872  53.2172  42.8728 0002992 343.8313  40.7911 15.72222210 12014,6730.684,91.59,354.56300000000016,350.536,0.0
52872.0,STARLINK-4213,PAYLOAD,2022-08-29 22:00:00,15.71544928,0.0003328999999999,53.2173,41.6348,1.6233,358.5143,-0.0089201,-0.01050752,0.0,0 STARLINK-4213,1 52872U 22062AU  22241.91667824 -.01050752  00000-0 -89201-2 0  9994,2 52872  53.2173  41.6348 0003329   1.6233 358.5143 15.71544928  1304,6732.618,91.63,356.724,352.242,0.0
52872.0,STARLINK-4213,PAYLOAD,2022-08-30 06:00:00,15.70788957,0.0003746,53.2175,39.9847,352.3602,94.2558,-0.0092675,-0.01056771,0.0,0 STARLINK-4213,1 52872U 22062AU  22242.25001157 -.01056771  00000-0 -92675-2 0  9999,2 52872  53.2175  39.9847 0003746 352.3602  94.2558 15.70788957 12104,6734.778,91.674,359.166,354.12,0.0
52872.0,STARLINK-4213,PAYLOAD,2022-08-30 14:00:01,15.70026459,0.0004378999999999,53.2176,38.3393,359.0787,173.1033,-0.0095171,-0.01051819,0.0,0 STARLINK-4213,1 52872U 22062AU  22242.58334491 -.01051819  00000-0 -95171-2 0  9997,2 52872  53.2176  38.3393 0004379 359.0787 173.1033 15.70026459  1302,6736.958000000001,91.718,361.773,355.87300000000016,0.0
52872.0,STARLINK-4213,PAYLOAD,2022-08-30 22:00:00,15.69336362,0.0001811999999999,53.2165,36.6996,293.2812,323.5096,-0.010628,-0.01130183,0.0,0 STARLINK-4213,1 52872U 22062AU  22242.91667824 -.01130183  00000-0 -10628-1 0  9998,2 52872  53.2165  36.6996 0001812 293.2812 323.5096 15.69336362  1302,6738.933000000001,91.759,362.019,359.577,0.0
52872.0,STARLINK-4213,PAYLOAD,2022-08-31 14:00:01,15.67749,0.0001482,53.2174,33.4121,38.8293,24.5726,-0.010478,-0.01051909,0.0,0 STARLINK-4213,1 52872U 22062AU  22243.58334491 -.01051909  00000-0 -10478-1 0  9994,2 52872  53.2174  33.4121 0001482  38.8293  24.5726 15.67749000  1309,6743.481,91.851,366.346,364.347,0.0
52872.0,STARLINK-4213,PAYLOAD,2022-08-31 20:00:01,15.67177625,0.0001018,53.2174,32.184,77.8612,317.0622,-0.010694,-0.0104886,0.0,0 STARLINK-4213,1 52872U 22062AU  22243.83334491 -.01048860  00000-0 -10694-1 0  9994,2 52872  53.2174  32.1840 0001018  77.8612 317.0622 15.67177625 12356,6745.12,91.885,367.672,366.299,0.0
52872.0,STARLINK-4213,PAYLOAD,2022-08-31 22:00:00,15.66968306,0.000128,53.2165,31.7771,59.2648,86.0605,-0.010498,-0.01023706,0.0,0 STARLINK-4213,1 52872U 22062AU  22243.91667824 -.01023706  00000-0 -10498-1 0  9996,2 52872  53.2165  31.7771 0001280  59.2648  86.0605 15.66968306  1308,6745.721,91.897,368.449,366.722,0.0
52872.0,STARLINK-4213,PAYLOAD,2022-09-01 14:00:01,15.65477299,0.0001131,53.2173,28.5037,76.5652,229.9033,-0.011589,-0.01059543,0.0,0 STARLINK-4213,1 52872U 22062AU  22244.58335648 -.01059543  00000-0 -11589-1 0  9996,2 52872  53.2173  28.5037 0001131  76.5652 229.9033 15.65477299  1306,6750.003000000002,91.985,372.632,371.105,0.0
52872.0,STARLINK-4213,PAYLOAD,2022-09-01 22:00:00,15.64710816,0.0001081,53.2171,26.869,61.0102,324.574,-0.011823,-0.01049261,0.0,0 STARLINK-4213,1 52872U 22062AU  22244.91667824 -.01049261  00000-0 -11823-1 0  9994,2 52872  53.2171  26.8690 0001081  61.0102 324.5740 15.64710816  1304,6752.208000000001,92.03,374.802,373.343,0.0
52872.0,STARLINK-4213,PAYLOAD,2022-09-02 14:00:01,15.63188557,0.0001455,53.2173,23.6074,52.5817,128.62,-0.012498,-0.01044566,0.0,0 STARLINK-4213,1 52872U 22062AU  22245.58334491 -.01044566  00000-0 -12498-1 0  9991,2 52872  53.2173  23.6074 0001455  52.5817 128.6200 15.63188557 12621,6756.59,92.119,379.439,377.472,0.0
52872.0,STARLINK-4213,PAYLOAD,2022-09-02 22:00:01,15.6243243,0.0001147,53.217,21.9804,77.4154,180.2885,-0.012941,-0.01065502,0.0,0 STARLINK-4213,1 52872U 22062AU  22245.91668981 -.01065502  00000-0 -12941-1 0  9998,2 52872  53.2170  21.9804 0001147  77.4154 180.2885 15.62432430  1305,6758.77,92.164,381.41,379.86,0.0
52872.0,STARLINK-4213,PAYLOAD,2022-09-03 08:00:01,15.61481887,0.0001347,53.2171,19.9479,53.3853,28.5192,-0.013409,-0.01063937,0.0,0 STARLINK-4213,1 52872U 22062AU  22246.33334491 -.01063937  00000-0 -13409-1 0  9991,2 52872  53.2171  19.9479 0001347  53.3853  28.5192 15.61481887 12746,6761.513000000001,92.22,384.289,382.467,0.0
52872.0,STARLINK-4213,PAYLOAD,2022-09-03 14:00:01,15.60954756,0.0001193999999999,53.2172,18.7319,61.2339,346.5214,-0.014457,-0.01118199,0.0,0 STARLINK-4213,1 52872U 22062AU  22246.58334491 -.01118199  00000-0 -14457-1 0  9993,2 52872  53.2172  18.7319 0001194  61.2339 346.5214 15.60954756  1301,6763.035,92.251,385.707,384.092,0.0
52872.0,STARLINK-4213,PAYLOAD,2022-09-03 22:00:00,15.60207727,0.000147,53.2165,17.1102,44.7691,76.6816,-0.0151379999999999,-0.01135763,0.0,0 STARLINK-4213,1 52872U 22062AU  22246.91667824 -.01135763  00000-0 -15138-1 0  9992,2 52872  53.2165  17.1102 0001470  44.7691  76.6816 15.60207727  1308,6765.194,92.295,388.05300000000005,386.064,0.0
52872.0,STARLINK-4213,PAYLOAD,2022-09-04 06:00:00,15.59392702,0.0001392,53.2173,15.486,56.3765,137.8929,-0.014516,-0.01062567,0.0,0 STARLINK-4213,1 52872U 22062AU  22247.25001157 -.01062567  00000-0 -14516-1 0  9991,2 52872  53.2173  15.4860 0001392  56.3765 137.8929 15.59392702 12889,6767.551,92.344,390.358,388.474,0.0
52872.0,STARLINK-4213,PAYLOAD,2022-09-04 14:00:01,15.58637863,0.0001247,53.2172,13.8711,62.7685,203.4358,-0.0150099999999999,-0.01067007,0.0,0 STARLINK-4213,1 52872U 22062AU  22247.58335648 -.01067007  00000-0 -15010-1 0  9996,2 52872  53.2172  13.8711 0001247  62.7685 203.4358 15.58637863  1306,6769.735,92.388,392.445,390.756,0.0
52872.0,STARLINK-4213,PAYLOAD,2022-09-04 20:00:01,15.58060918,0.0001306,53.2172,12.6572,62.297,167.1548,-0.015182,-0.0105683,0.0,0 STARLINK-4213,1 52872U 22062AU  22247.83334491 -.01056830  00000-0 -15182-1 0  9991,2 52872  53.2172  12.6572 0001306  62.2970 167.1548 15.58060918  1304,6771.406,92.423,394.156,392.387,0.0
52872.0,STARLINK-4213,PAYLOAD,2022-09-05 06:00:00,15.57113231,0.000132,53.2172,10.6361,45.3065,1.8518,-0.015806,-0.01061153,0.0,0 STARLINK-4213,1 52872U 22062AU  22248.25001157 -.01061153  00000-0 -15806-1 0  9995,2 52872  53.2172  10.6361 0001320  45.3065   1.8518 15.57113231 13042,6774.154,92.479,396.913,395.124,0.0
52872.0,STARLINK-4213,PAYLOAD,2022-09-05 14:00:01,15.56354635,0.0001545,53.2172,9.025,45.2743,71.0198,-0.016267,-0.0106149,0.0,0 STARLINK-4213,1 52872U 22062AU  22248.58334491 -.01061490  00000-0 -16267-1 0  9997,2 52872  53.2172   9.0250 0001545  45.2743  71.0198 15.56354635  1305,6776.355,92.524,399.267,397.173,0.0
52872.0,STARLINK-4213,PAYLOAD,2022-09-05 22:00:00,15.55594228,0.0001531999999999,53.2164,7.4154,53.5844,130.9341,-0.016713,-0.01060211,0.0,0 STARLINK-4213,1 52872U 22062AU  22248.91667824 -.01060211  00000-0 -16713-1 0  9999,2 52872  53.2164   7.4154 0001532  53.5844 130.9341 15.55594228  1309,6778.563,92.569,401.466,399.389,0.0
52872.0,STARLINK-4213,PAYLOAD,2022-09-06 06:00:00,15.54834804,0.0001326,53.2172,5.8026,59.602,192.2306,-0.017188,-0.01060015,0.0,0 STARLINK-4213,1 52872U 22062AU  22249.25001157 -.01060015  00000-0 -17188-1 0  9997,2 52872  53.2172   5.8026 0001326  59.6020 192.2306 15.54834804 13202,6780.77,92.614,403.534,401.736,0.0
52872.0,STARLINK-4213,PAYLOAD,2022-09-06 14:00:01,15.54076239,0.0001429,53.2172,4.1971,44.9458,273.2847,-0.017694,-0.01061053,0.0,0 STARLINK-4213,1 52872U 22062AU  22249.58334491 -.01061053  00000-0 -17694-1 0  9998,2 52872  53.2172   4.1971 0001429  44.9458 273.2847 15.54076239  1307,6782.976,92.66,405.811,403.872,0.0
